{
  "links" : {
    "next" : "https://api.nasa.gov/neo/rest/v1/feed?start_date=2011-08-23&end_date=2011-08-23&detailed=true&api_key=t0TVs3DtDT2H8Oy2Zy8m2eVrNsAVKAexjcZXUckd",
    "prev" : "https://api.nasa.gov/neo/rest/v1/feed?start_date=2011-08-21&end_date=2011-08-21&detailed=true&api_key=t0TVs3DtDT2H8Oy2Zy8m2eVrNsAVKAexjcZXUckd",
    "self" : "https://api.nasa.gov/neo/rest/v1/feed?start_date=2011-08-22&end_date=2011-08-22&detailed=true&api_key=t0TVs3DtDT2H8Oy2Zy8m2eVrNsAVKAexjcZXUckd"
  },
  "element_count" : 7,
  "near_earth_objects" : {
    "2011-08-22" : [ {
      "links" : {
        "self" : "https://api.nasa.gov/neo/rest/v1/neo/2365071?api_key=t0TVs3DtDT2H8Oy2Zy8m2eVrNsAVKAexjcZXUckd"
      },
      "neo_reference_id" : "2365071",
      "name" : "365071 (2009 AV)",
      "nasa_jpl_url" : "http://ssd.jpl.nasa.gov/sbdb.cgi?sstr=2365071",
      "absolute_magnitude_h" : 18.1,
      "estimated_diameter" : {
        "kilometers" : {
          "estimated_diameter_min" : 0.6376097899,
          "estimated_diameter_max" : 1.4257388333
        },
        "meters" : {
          "estimated_diameter_min" : 637.6097898754,
          "estimated_diameter_max" : 1425.7388332807
        },
        "miles" : {
          "estimated_diameter_min" : 0.3961922327,
          "estimated_diameter_max" : 0.8859127646
        },
        "feet" : {
          "estimated_diameter_min" : 2091.8957030147,
          "estimated_diameter_max" : 4677.6209937807
        }
      },
      "is_potentially_hazardous_asteroid" : true,
      "close_approach_data" : [ {
        "close_approach_date" : "2011-08-22",
        "epoch_date_close_approach" : 1313996400000,
        "relative_velocity" : {
          "kilometers_per_second" : "22.6837645525",
          "kilometers_per_hour" : "81661.5523889932",
          "miles_per_hour" : "50741.312927483"
        },
        "miss_distance" : {
          "astronomical" : "0.127796466",
          "lunar" : "49.7128257751",
          "kilometers" : "19118080",
          "miles" : "11879424"
        },
        "orbiting_body" : "Earth"
      } ],
      "orbital_data" : {
        "orbit_id" : "147",
        "orbit_determination_date" : "2017-04-06 09:22:41",
        "orbit_uncertainty" : "0",
        "minimum_orbit_intersection" : ".0193974",
        "jupiter_tisserand_invariant" : "5.671",
        "epoch_osculation" : "2458000.5",
        "eccentricity" : ".07397212906650603",
        "semi_major_axis" : "1.029793001328298",
        "inclination" : "45.86441514921972",
        "ascending_node_longitude" : "150.7477115155145",
        "orbital_period" : "381.7010290568976",
        "perihelion_distance" : ".9536170205222561",
        "perihelion_argument" : "322.10350980",
        "aphelion_distance" : "1.105968982134339",
        "perihelion_time" : "2457844.188726334579",
        "mean_anomaly" : "147.4244349264346",
        "mean_motion" : ".9431465272427579",
        "equinox" : "J2000"
      }
    }, {
      "links" : {
        "self" : "https://api.nasa.gov/neo/rest/v1/neo/2413577?api_key=t0TVs3DtDT2H8Oy2Zy8m2eVrNsAVKAexjcZXUckd"
      },
      "neo_reference_id" : "2413577",
      "name" : "413577 (2005 UL5)",
      "nasa_jpl_url" : "http://ssd.jpl.nasa.gov/sbdb.cgi?sstr=2413577",
      "absolute_magnitude_h" : 20.3,
      "estimated_diameter" : {
        "kilometers" : {
          "estimated_diameter_min" : 0.2315021222,
          "estimated_diameter_max" : 0.5176544822
        },
        "meters" : {
          "estimated_diameter_min" : 231.5021222103,
          "estimated_diameter_max" : 517.6544821978
        },
        "miles" : {
          "estimated_diameter_min" : 0.1438487052,
          "estimated_diameter_max" : 0.3216554833
        },
        "feet" : {
          "estimated_diameter_min" : 759.5214226325,
          "estimated_diameter_max" : 1698.3415313737
        }
      },
      "is_potentially_hazardous_asteroid" : true,
      "close_approach_data" : [ {
        "close_approach_date" : "2011-08-22",
        "epoch_date_close_approach" : 1313996400000,
        "relative_velocity" : {
          "kilometers_per_second" : "29.0222160661",
          "kilometers_per_hour" : "104479.9778381306",
          "miles_per_hour" : "64919.7951183651"
        },
        "miss_distance" : {
          "astronomical" : "0.4305319415",
          "lunar" : "167.4769287109",
          "kilometers" : "64406664",
          "miles" : "40020444"
        },
        "orbiting_body" : "Earth"
      } ],
      "orbital_data" : {
        "orbit_id" : "74",
        "orbit_determination_date" : "2017-04-06 09:21:32",
        "orbit_uncertainty" : "0",
        "minimum_orbit_intersection" : ".00550907",
        "jupiter_tisserand_invariant" : "6.233",
        "epoch_osculation" : "2458000.5",
        "eccentricity" : ".5697983128371871",
        "semi_major_axis" : ".9362817341462037",
        "inclination" : "14.31793051673601",
        "ascending_node_longitude" : "58.91300608574976",
        "orbital_period" : "330.9087515766655",
        "perihelion_distance" : ".4027899816894212",
        "perihelion_argument" : "127.7548765626769",
        "aphelion_distance" : "1.469773486602986",
        "perihelion_time" : "2458065.766116411646",
        "mean_anomaly" : "288.9961302134097",
        "mean_motion" : "1.087913203518265",
        "equinox" : "J2000"
      }
    }, {
      "links" : {
        "self" : "https://api.nasa.gov/neo/rest/v1/neo/3384185?api_key=t0TVs3DtDT2H8Oy2Zy8m2eVrNsAVKAexjcZXUckd"
      },
      "neo_reference_id" : "3384185",
      "name" : "(2007 RT12)",
      "nasa_jpl_url" : "http://ssd.jpl.nasa.gov/sbdb.cgi?sstr=3384185",
      "absolute_magnitude_h" : 23.9,
      "estimated_diameter" : {
        "kilometers" : {
          "estimated_diameter_min" : 0.04411182,
          "estimated_diameter_max" : 0.0986370281
        },
        "meters" : {
          "estimated_diameter_min" : 44.1118199997,
          "estimated_diameter_max" : 98.6370281305
        },
        "miles" : {
          "estimated_diameter_min" : 0.0274098057,
          "estimated_diameter_max" : 0.0612901888
        },
        "feet" : {
          "estimated_diameter_min" : 144.7238235278,
          "estimated_diameter_max" : 323.6123073718
        }
      },
      "is_potentially_hazardous_asteroid" : false,
      "close_approach_data" : [ {
        "close_approach_date" : "2011-08-22",
        "epoch_date_close_approach" : 1313996400000,
        "relative_velocity" : {
          "kilometers_per_second" : "18.3161945917",
          "kilometers_per_hour" : "65938.3005299749",
          "miles_per_hour" : "40971.4956820836"
        },
        "miss_distance" : {
          "astronomical" : "0.4506168784",
          "lunar" : "175.2899627686",
          "kilometers" : "67411328",
          "miles" : "41887456"
        },
        "orbiting_body" : "Earth"
      } ],
      "orbital_data" : {
        "orbit_id" : "15",
        "orbit_determination_date" : "2017-04-06 09:06:04",
        "orbit_uncertainty" : "3",
        "minimum_orbit_intersection" : ".0441378",
        "jupiter_tisserand_invariant" : "5.987",
        "epoch_osculation" : "2458000.5",
        "eccentricity" : ".1598919357533941",
        "semi_major_axis" : "1.016989883658047",
        "inclination" : "4.250709973917679",
        "ascending_node_longitude" : "167.5976211119246",
        "orbital_period" : "374.6048330071443",
        "perihelion_distance" : ".8543814025183426",
        "perihelion_argument" : "43.35217731072181",
        "aphelion_distance" : "1.179598364797751",
        "perihelion_time" : "2457967.057972414135",
        "mean_anomaly" : "32.13821304511015",
        "mean_motion" : ".9610126946577174",
        "equinox" : "J2000"
      }
    } ]
  }
}